{
  "type": "FeatureCollection",
  "features": [
    {
      "type": "Feature",
      "properties": {
        "norad_id": 33886,
        "name": "IRIDIUM 33 DEB",
        "group": "iridium-33-debris",
        "lat": 71.57558296165854,
        "lon": 73.86498795444307,
        "alt_km": 771.1892143684963,
        "timestamp": "2025-12-22T23:36:21.100395+00:00",
        "meta_object_name": "IRIDIUM 33 DEB",
        "meta_object_id": "1997-051BF",
        "meta_epoch": "2025-12-22T11:37:02.008992",
        "meta_mean_motion": 14.36062756,
        "meta_eccentricity": 0.00131922,
        "meta_inclination": 86.3822,
        "meta_ra_of_asc_node": 63.1272,
        "meta_arg_of_pericenter": 206.9179,
        "meta_mean_anomaly": 164.3173,
        "meta_ephemeris_type": 0,
        "meta_classification_type": "U",
        "meta_norad_cat_id": 33886,
        "meta_element_set_no": 999,
        "meta_rev_at_epoch": 88192,
        "meta_bstar": 0.00017634481,
        "meta_mean_motion_dot": 5.33e-06,
        "meta_mean_motion_ddot": 0,
        "tle_line1": "1 33886U 97051BF  25356.48405103  .00000533  00000+0  17634-3 0  9990",
        "tle_line2": "2 33886  86.3822  63.1272 0013192 206.9179 164.3173 14.36062756881923"
      },
      "geometry": {
        "type": "Point",
        "coordinates": [
          73.86498795444307,
          71.57558296165854
        ]
      }
    },
    {
      "type": "Feature",
      "properties": {
        "norad_id": 33887,
        "name": "IRIDIUM 33 DEB",
        "group": "iridium-33-debris",
        "lat": 51.08350405849857,
        "lon": 3.5692357736328146,
        "alt_km": 765.8285077959117,
        "timestamp": "2025-12-22T23:36:21.100406+00:00",
        "meta_object_name": "IRIDIUM 33 DEB",
        "meta_object_id": "1997-051BG",
        "meta_epoch": "2025-12-22T12:15:13.500288",
        "meta_mean_motion": 14.37229472,
        "meta_eccentricity": 0.00054817,
        "meta_inclination": 86.3042,
        "meta_ra_of_asc_node": 359.1812,
        "meta_arg_of_pericenter": 188.3321,
        "meta_mean_anomaly": 297.2235,
        "meta_ephemeris_type": 0,
        "meta_classification_type": "U",
        "meta_norad_cat_id": 33887,
        "meta_element_set_no": 999,
        "meta_rev_at_epoch": 88305,
        "meta_bstar": 0.00013931284,
        "meta_mean_motion_dot": 4.34e-06,
        "meta_mean_motion_ddot": 0,
        "tle_line1": "1 33887U 97051BG  25356.51057292  .00000434  00000+0  13931-3 0  9993",
        "tle_line2": "2 33887  86.3042 359.1812 0005481 188.3321 297.2235 14.37229472883052"
      },
      "geometry": {
        "type": "Point",
        "coordinates": [
          3.5692357736328146,
          51.08350405849857
        ]
      }
    },
    {
      "type": "Feature",
      "properties": {
        "norad_id": 33953,
        "name": "IRIDIUM 33 DEB",
        "group": "iridium-33-debris",
        "lat": -35.202445603499356,
        "lon": -128.10956628713902,
        "alt_km": 724.5818854760528,
        "timestamp": "2025-12-22T23:36:21.100417+00:00",
        "meta_object_name": "IRIDIUM 33 DEB",
        "meta_object_id": "1997-051BN",
        "meta_epoch": "2025-12-22T04:44:25.619136",
        "meta_mean_motion": 14.55406947,
        "meta_eccentricity": 0.00178347,
        "meta_inclination": 86.3836,
        "meta_ra_of_asc_node": 49.6744,
        "meta_arg_of_pericenter": 73.9809,
        "meta_mean_anomaly": 345.1929,
        "meta_ephemeris_type": 0,
        "meta_classification_type": "U",
        "meta_norad_cat_id": 33953,
        "meta_element_set_no": 999,
        "meta_rev_at_epoch": 88441,
        "meta_bstar": 0.0010994661,
        "meta_mean_motion_dot": 4.805e-05,
        "meta_mean_motion_ddot": 0,
        "tle_line1": "1 33953U 97051BN  25356.19751874  .00004805  00000+0  10995-2 0  9990",
        "tle_line2": "2 33953  86.3836  49.6744 0017834  73.9809 345.1929 14.55406947884415"
      },
      "geometry": {
        "type": "Point",
        "coordinates": [
          -128.10956628713902,
          -35.202445603499356
        ]
      }
    },
    {
      "type": "Feature",
      "properties": {
        "norad_id": 33960,
        "name": "IRIDIUM 33 DEB",
        "group": "iridium-33-debris",
        "lat": 46.43584721883069,
        "lon": -71.36739573197667,
        "alt_km": 602.4266283403858,
        "timestamp": "2025-12-22T23:36:21.100428+00:00",
        "meta_object_name": "IRIDIUM 33 DEB",
        "meta_object_id": "1997-051BV",
        "meta_epoch": "2025-12-22T06:09:23.968224",
        "meta_mean_motion": 14.8563682,
        "meta_eccentricity": 0.00072716,
        "meta_inclination": 86.2544,
        "meta_ra_of_asc_node": 285.0259,
        "meta_arg_of_pericenter": 45.0097,
        "meta_mean_anomaly": 75.6646,
        "meta_ephemeris_type": 0,
        "meta_classification_type": "U",
        "meta_norad_cat_id": 33960,
        "meta_element_set_no": 999,
        "meta_rev_at_epoch": 89008,
        "meta_bstar": 0.0034646151,
        "meta_mean_motion_dot": 0.00030136,
        "meta_mean_motion_ddot": 0,
        "tle_line1": "1 33960U 97051BV  25356.25652741  .00030136  00000+0  34646-2 0  9993",
        "tle_line2": "2 33960  86.2544 285.0259 0007271  45.0097  75.6646 14.85636820890087"
      },
      "geometry": {
        "type": "Point",
        "coordinates": [
          -71.36739573197667,
          46.43584721883069
        ]
      }
    },
    {
      "type": "Feature",
      "properties": {
        "norad_id": 33966,
        "name": "IRIDIUM 33 DEB",
        "group": "iridium-33-debris",
        "lat": 50.78703892029877,
        "lon": -142.80522196778256,
        "alt_km": 716.8877985927829,
        "timestamp": "2025-12-22T23:36:21.100438+00:00",
        "meta_object_name": "IRIDIUM 33 DEB",
        "meta_object_id": "1997-051CB",
        "meta_epoch": "2025-12-22T13:37:15.049920",
        "meta_mean_motion": 14.49630108,
        "meta_eccentricity": 0.00085054,
        "meta_inclination": 86.3912,
        "meta_ra_of_asc_node": 41.8093,
        "meta_arg_of_pericenter": 157.4604,
        "meta_mean_anomaly": 321.7914,
        "meta_ephemeris_type": 0,
        "meta_classification_type": "U",
        "meta_norad_cat_id": 33966,
        "meta_element_set_no": 999,
        "meta_rev_at_epoch": 88584,
        "meta_bstar": 0.00043607238,
        "meta_mean_motion_dot": 1.695e-05,
        "meta_mean_motion_ddot": 0,
        "tle_line1": "1 33966U 97051CB  25356.56753530  .00001695  00000+0  43607-3 0  9997",
        "tle_line2": "2 33966  86.3912  41.8093 0008505 157.4604 321.7914 14.49630108885844"
      },
      "geometry": {
        "type": "Point",
        "coordinates": [
          -142.80522196778256,
          50.78703892029877
        ]
      }
    },
    {
      "type": "Feature",
      "properties": {
        "norad_id": 34071,
        "name": "IRIDIUM 33 DEB",
        "group": "iridium-33-debris",
        "lat": -10.970658077823975,
        "lon": -165.91458323216497,
        "alt_km": 734.177213472376,
        "timestamp": "2025-12-22T23:36:21.100448+00:00",
        "meta_object_name": "IRIDIUM 33 DEB",
        "meta_object_id": "1997-051CE",
        "meta_epoch": "2025-12-22T12:47:17.503872",
        "meta_mean_motion": 14.49505346,
        "meta_eccentricity": 0.00099075,
        "meta_inclination": 86.3448,
        "meta_ra_of_asc_node": 13.5713,
        "meta_arg_of_pericenter": 81.226,
        "meta_mean_anomaly": 279.0066,
        "meta_ephemeris_type": 0,
        "meta_classification_type": "U",
        "meta_norad_cat_id": 34071,
        "meta_element_set_no": 999,
        "meta_rev_at_epoch": 88476,
        "meta_bstar": 0.000513667,
        "meta_mean_motion_dot": 1.989e-05,
        "meta_mean_motion_ddot": 0,
        "tle_line1": "1 34071U 97051CE  25356.53284148  .00001989  00000+0  51367-3 0  9994",
        "tle_line2": "2 34071  86.3448  13.5713 0009907  81.2260 279.0066 14.49505346884768"
      },
      "geometry": {
        "type": "Point",
        "coordinates": [
          -165.91458323216497,
          -10.970658077823975
        ]
      }
    },
    {
      "type": "Feature",
      "properties": {
        "norad_id": 34077,
        "name": "IRIDIUM 33 DEB",
        "group": "iridium-33-debris",
        "lat": -60.18267298605185,
        "lon": -126.67210889164079,
        "alt_km": 688.2142871627566,
        "timestamp": "2025-12-22T23:36:21.100459+00:00",
        "meta_object_name": "IRIDIUM 33 DEB",
        "meta_object_id": "1997-051CL",
        "meta_epoch": "2025-12-22T09:27:37.329984",
        "meta_mean_motion": 14.64940807,
        "meta_eccentricity": 0.00090827,
        "meta_inclination": 86.3849,
        "meta_ra_of_asc_node": 47.2542,
        "meta_arg_of_pericenter": 8.0354,
        "meta_mean_anomaly": 6.0314,
        "meta_ephemeris_type": 0,
        "meta_classification_type": "U",
        "meta_norad_cat_id": 34077,
        "meta_element_set_no": 999,
        "meta_rev_at_epoch": 88474,
        "meta_bstar": 0.00142765,
        "meta_mean_motion_dot": 7.665e-05,
        "meta_mean_motion_ddot": 0,
        "tle_line1": "1 34077U 97051CL  25356.39418206  .00007665  00000+0  14276-2 0  9992",
        "tle_line2": "2 34077  86.3849  47.2542 0009082   8.0354   6.0314 14.64940807884742"
      },
      "geometry": {
        "type": "Point",
        "coordinates": [
          -126.67210889164079,
          -60.18267298605185
        ]
      }
    }
  ]
}